{"type": "FeatureCollection", "features": [ {"type": "Feature", "properties": {"norad_id": 43262, "name": "GAOFEN-1 04", "group": "resource", "lat": 16.587339281255375, "lon": -141.5044432098293, "alt_km": 641.4508292324126, "timestamp": "2025-12-04T05:42:43.035537+00:00", "meta": {"OBJECT_NAME": "GAOFEN-1 04", "OBJECT_ID": "2018-031D", "EPOCH": "2025-12-04T00:05:45.553344", "MEAN_MOTION": 14.76421762, "ECCENTRICITY": 0.00013325, "INCLINATION": 98.082, "RA_OF_ASC_NODE": 35.8356, "ARG_OF_PERICENTER": 62.0421, "MEAN_ANOMALY": 298.0923, "EPHEMERIS_TYPE": 0, "CLASSIFICATION_TYPE": "U", "NORAD_CAT_ID": 43262, "ELEMENT_SET_NO": 999, "REV_AT_EPOCH": 41388, "BSTAR": 0.00027267853, "MEAN_MOTION_DOT": 1.844e-05, "MEAN_MOTION_DDOT": 0}, "tle": {"line1": "1 43262U 18031D   25338.00399946  .00001844  00000+0  27268-3 0  9995", "line2": "2 43262  98.0820  35.8356 0001332  62.0421 298.0923 14.76421762413887"}}, "geometry": {"type": "Point", "coordinates": [-141.5044432098293, 16.587339281255375]}}, {"type": "Feature", "properties": {"norad_id": 43437, "name": "SENTINEL-3B", "group": "resource", "lat": 47.501106505163804, "lon": 34.006739546253584, "alt_km": 797.9058548690482, "timestamp": "2025-12-04T05:42:43.035547+00:00", "meta": {"OBJECT_NAME": "SENTINEL-3B", "OBJECT_ID": "2018-039A", "EPOCH": "2025-12-03T19:23:16.855008", "MEAN_MOTION": 14.26737137, "ECCENTRICITY": 0.00014717, "INCLINATION": 98.6279, "RA_OF_ASC_NODE": 43.1207, "ARG_OF_PERICENTER": 111.4511, "MEAN_ANOMALY": 248.6827, "EPHEMERIS_TYPE": 0, "CLASSIFICATION_TYPE": "U", "NORAD_CAT_ID": 43437, "ELEMENT_SET_NO": 999, "REV_AT_EPOCH": 39626, "BSTAR": 0.00011750661, "MEAN_MOTION_DOT": 2.41e-06, "MEAN_MOTION_DDOT": 0}, "tle": {"line1": "1 43437U 18039A   25337.80783397  .00000241  00000+0  11751-3 0  9991", "line2": "2 43437  98.6279  43.1207 0001471 111.4511 248.6827 14.26737137396262"}}, "geometry": {"type": "Point", "coordinates": [34.006739546253584, 47.501106505163804]}}, {"type": "Feature", "properties": {"norad_id": 43461, "name": "GAOFEN-5 01", "group": "resource", "lat": 81.45446931323156, "lon": -139.72551903996802, "alt_km": 684.2633545375484, "timestamp": "2025-12-04T05:42:43.035557+00:00", "meta": {"OBJECT_NAME": "GAOFEN-5 01", "OBJECT_ID": "2018-043A", "EPOCH": "2025-12-03T21:05:09.299040", "MEAN_MOTION": 14.60394201, "ECCENTRICITY": 0.000154, "INCLINATION": 98.4313, "RA_OF_ASC_NODE": 300.6919, "ARG_OF_PERICENTER": 8.9704, "MEAN_ANOMALY": 351.1523, "EPHEMERIS_TYPE": 0, "CLASSIFICATION_TYPE": "U", "NORAD_CAT_ID": 43461, "ELEMENT_SET_NO": 999, "REV_AT_EPOCH": 40318, "BSTAR": 0.00020452528, "MEAN_MOTION_DOT": 9.41e-06, "MEAN_MOTION_DDOT": 0}, "tle": {"line1": "1 43461U 18043A   25337.87857985  .00000941  00000+0  20453-3 0  9991", "line2": "2 43461  98.4313 300.6919 0001540   8.9704 351.1523 14.60394201403180"}}, "geometry": {"type": "Point", "coordinates": [-139.72551903996802, 81.45446931323156]}}, {"type": "Feature", "properties": {"norad_id": 43484, "name": "GAOFEN-6", "group": "resource", "lat": -48.69395325206391, "lon": 51.76980351900368, "alt_km": 654.0831922814577, "timestamp": "2025-12-04T05:42:43.035566+00:00", "meta": {"OBJECT_NAME": "GAOFEN-6", "OBJECT_ID": "2018-048A", "EPOCH": "2025-12-03T23:25:46.049088", "MEAN_MOTION": 14.76538589, "ECCENTRICITY": 0.00133194, "INCLINATION": 97.8043, "RA_OF_ASC_NODE": 42.5372, "ARG_OF_PERICENTER": 89.5887, "MEAN_ANOMALY": 270.685, "EPHEMERIS_TYPE": 0, "CLASSIFICATION_TYPE": "U", "NORAD_CAT_ID": 43484, "ELEMENT_SET_NO": 999, "REV_AT_EPOCH": 40458, "BSTAR": 0.0001092287, "MEAN_MOTION_DOT": 7.13e-06, "MEAN_MOTION_DDOT": 0}, "tle": {"line1": "1 43484U 18048A   25337.97622742  .00000713  00000+0  10923-3 0  9991", "line2": "2 43484  97.8043  42.5372 0013319  89.5887 270.6850 14.76538589404586"}}, "geometry": {"type": "Point", "coordinates": [51.76980351900368, -48.69395325206391]}}, {"type": "Feature", "properties": {"norad_id": 43585, "name": "GAOFEN-11 01", "group": "resource", "lat": 61.82131482668208, "lon": 27.678876197578223, "alt_km": 413.0603989764131, "timestamp": "2025-12-04T05:42:43.035576+00:00", "meta": {"OBJECT_NAME": "GAOFEN-11 01", "OBJECT_ID": "2018-063A", "EPOCH": "2025-12-03T23:14:25.021824", "MEAN_MOTION": 15.48842188, "ECCENTRICITY": 0.0004916, "INCLINATION": 97.1578, "RA_OF_ASC_NODE": 40.9787, "ARG_OF_PERICENTER": 351.8072, "MEAN_ANOMALY": 8.3098, "EPHEMERIS_TYPE": 0, "CLASSIFICATION_TYPE": "U", "NORAD_CAT_ID": 43585, "ELEMENT_SET_NO": 999, "REV_AT_EPOCH": 41006, "BSTAR": 0.00051198641, "MEAN_MOTION_DOT": 0.00027529, "MEAN_MOTION_DDOT": 0}, "tle": {"line1": "1 43585U 18063A   25337.96834516  .00027529  00000+0  51199-3 0  9997", "line2": "2 43585  97.1578  40.9787 0004916 351.8072   8.3098 15.48842188410063"}}, "geometry": {"type": "Point", "coordinates": [27.678876197578223, 61.82131482668208]}}, {"type": "Feature", "properties": {"norad_id": 43613, "name": "ICESAT-2", "group": "resource", "lat": 76.63537346402845, "lon": -130.04002400850234, "alt_km": 473.7412574802438, "timestamp": "2025-12-04T05:42:43.035588+00:00", "meta": {"OBJECT_NAME": "ICESAT-2", "OBJECT_ID": "2018-070A", "EPOCH": "2025-12-03T23:05:28.160736", "MEAN_MOTION": 15.28251726, "ECCENTRICITY": 3.907e-05, "INCLINATION": 92.0056, "RA_OF_ASC_NODE": 238.3676, "ARG_OF_PERICENTER": 136.0831, "MEAN_ANOMALY": 224.0449, "EPHEMERIS_TYPE": 0, "CLASSIFICATION_TYPE": "U", "NORAD_CAT_ID": 43613, "ELEMENT_SET_NO": 999, "REV_AT_EPOCH": 40264, "BSTAR": 0.0009279666, "MEAN_MOTION_DOT": 0.00025579, "MEAN_MOTION_DDOT": 0}, "tle": {"line1": "1 43613U 18070A   25337.96213149  .00025579  00000+0  92797-3 0  9992", "line2": "2 43613  92.0056 238.3676 0000390 136.0831 224.0449 15.28251726402640"}}, "geometry": {"type": "Point", "coordinates": [-130.04002400850234, 76.63537346402845]}}, {"type": "Feature", "properties": {"norad_id": 43719, "name": "HYSIS", "group": "resource", "lat": -75.05689751073447, "lon": 73.10590043636095, "alt_km": 641.9781701431393, "timestamp": "2025-12-04T05:42:43.035600+00:00", "meta": {"OBJECT_NAME": "HYSIS", "OBJECT_ID": "2018-096A", "EPOCH": "2025-12-03T23:33:53.273376", "MEAN_MOTION": 14.78603565, "ECCENTRICITY": 0.00016224, "INCLINATION": 98.0109, "RA_OF_ASC_NODE": 41.0023, "ARG_OF_PERICENTER": 67.6656, "MEAN_ANOMALY": 292.4727, "EPHEMERIS_TYPE": 0, "CLASSIFICATION_TYPE": "U", "NORAD_CAT_ID": 43719, "ELEMENT_SET_NO": 999, "REV_AT_EPOCH": 37857, "BSTAR": 3.4560417e-05, "MEAN_MOTION_DOT": 2.01e-06, "MEAN_MOTION_DDOT": 0}, "tle": {"line1": "1 43719U 18096A   25337.98186659  .00000201  00000+0  34560-4 0  9994", "line2": "2 43719  98.0109  41.0023 0001622  67.6656 292.4727 14.78603565378578"}}, "geometry": {"type": "Point", "coordinates": [73.10590043636095, -75.05689751073447]}}, {"type": "Feature", "properties": {"norad_id": 43783, "name": "KAZSTSAT", "group": "resource", "lat": -65.38571819428368, "lon": 177.18019908347458, "alt_km": 578.2349121145007, "timestamp": "2025-12-04T05:42:43.035610+00:00", "meta": {"OBJECT_NAME": "KAZSTSAT", "OBJECT_ID": "2018-099AB", "EPOCH": "2025-12-03T14:12:00.344160", "MEAN_MOTION": 14.99301912, "ECCENTRICITY": 0.00065178, "INCLINATION": 97.4553, "RA_OF_ASC_NODE": 13.17, "ARG_OF_PERICENTER": 4.0766, "MEAN_ANOMALY": 356.051, "EPHEMERIS_TYPE": 0, "CLASSIFICATION_TYPE": "U", "NORAD_CAT_ID": 43783, "ELEMENT_SET_NO": 999, "REV_AT_EPOCH": 38199, "BSTAR": 0.00023638969, "MEAN_MOTION_DOT": 2.832e-05, "MEAN_MOTION_DDOT": 0}, "tle": {"line1": "1 43783U 18099AB  25337.59167065  .00002832  00000+0  23639-3 0  9991", "line2": "2 43783  97.4553  13.1700 0006517   4.0766 356.0510 14.99301912381993"}}, "geometry": {"type": "Point", "coordinates": [177.18019908347458, -65.38571819428368]}}, {"type": "Feature", "properties": {"norad_id": 43831, "name": "SAUDISAT 5A", "group": "resource", "lat": -37.105796908049, "lon": -146.99920847121356, "alt_km": 499.2002355593322, "timestamp": "2025-12-04T05:42:43.035623+00:00", "meta": {"OBJECT_NAME": "SAUDISAT 5A", "OBJECT_ID": "2018-102A", "EPOCH": "2025-12-04T00:02:24.916992", "MEAN_MOTION": 15.25485644, "ECCENTRICITY": 0.00117969, "INCLINATION": 97.3372, "RA_OF_ASC_NODE": 38.3626, "ARG_OF_PERICENTER": 103.0027, "MEAN_ANOMALY": 257.2529, "EPHEMERIS_TYPE": 0, "CLASSIFICATION_TYPE": "U", "NORAD_CAT_ID": 43831, "ELEMENT_SET_NO": 999, "REV_AT_EPOCH": 38589, "BSTAR": 0.00048380308, "MEAN_MOTION_DOT": 0.0001221, "MEAN_MOTION_DDOT": 0}, "tle": {"line1": "1 43831U 18102A   25338.00167728  .00012210  00000+0  48380-3 0  9994", "line2": "2 43831  97.3372  38.3626 0011796 103.0027 257.2529 15.25485644385896"}}, "geometry": {"type": "Point", "coordinates": [-146.99920847121356, -37.105796908049]}}, {"type": "Feature", "properties": {"norad_id": 43833, "name": "SAUDISAT 5B", "group": "resource", "lat": -76.5654644113872, "lon": -171.37513289155137, "alt_km": 503.29317353293027, "timestamp": "2025-12-04T05:42:43.035633+00:00", "meta": {"OBJECT_NAME": "SAUDISAT 5B", "OBJECT_ID": "2018-102C", "EPOCH": "2025-12-03T23:51:38.245824", "MEAN_MOTION": 15.2584306, "ECCENTRICITY": 0.00124858, "INCLINATION": 97.3467, "RA_OF_ASC_NODE": 41.078, "ARG_OF_PERICENTER": 105.5442, "MEAN_ANOMALY": 254.7176, "EPHEMERIS_TYPE": 0, "CLASSIFICATION_TYPE": "U", "NORAD_CAT_ID": 43833, "ELEMENT_SET_NO": 999, "REV_AT_EPOCH": 38600, "BSTAR": 0.00047835343, "MEAN_MOTION_DOT": 0.00012205, "MEAN_MOTION_DDOT": 0}, "tle": {"line1": "1 43833U 18102C   25337.99419266  .00012205  00000+0  47835-3 0  9998", "line2": "2 43833  97.3467  41.0780 0012485 105.5442 254.7176 15.25843060386003"}}, "geometry": {"type": "Point", "coordinates": [-171.37513289155137, -76.5654644113872]}}]}